{
    "links": {
        "self": "http://www.neowsapp.com/rest/v1/neo/3283445?api_key=iIulBulltgU6a56xZRHN4H3l9WmuAYTsLGpBGhQ2"
    },
    "id": "3283445",
    "neo_reference_id": "3283445",
    "name": "(2005 NG)",
    "designation": "2005 NG",
    "nasa_jpl_url": "http://ssd.jpl.nasa.gov/sbdb.cgi?sstr=3283445",
    "absolute_magnitude_h": 24.2,
    "estimated_diameter": {
        "kilometers": {
            "estimated_diameter_min": 0.0384197891,
            "estimated_diameter_max": 0.0859092601
        },
        "meters": {
            "estimated_diameter_min": 38.4197891064,
            "estimated_diameter_max": 85.9092601232
        },
        "miles": {
            "estimated_diameter_min": 0.0238729428,
            "estimated_diameter_max": 0.0533815229
        },
        "feet": {
            "estimated_diameter_min": 126.0491808919,
            "estimated_diameter_max": 281.8545369825
        }
    },
    "is_potentially_hazardous_asteroid": false,
    "close_approach_data": [
        {
            "close_approach_date": "2005-06-29",
            "close_approach_date_full": "2005-Jun-29 09:21",
            "epoch_date_close_approach": 1120036860000,
            "relative_velocity": {
                "kilometers_per_second": "12.8519799519",
                "kilometers_per_hour": "46267.1278267388",
                "miles_per_hour": "28748.5939543423"
            },
            "miss_distance": {
                "astronomical": "0.0242736781",
                "lunar": "9.4424607809",
                "kilometers": "3631290.540825647",
                "miles": "2256379.3123700486"
            },
            "orbiting_body": "Earth"
        }
    ],
    "orbital_data": {
        "orbit_id": "14",
        "orbit_determination_date": "2020-06-02 06:14:19",
        "first_observation_date": "2005-07-02",
        "last_observation_date": "2005-07-11",
        "data_arc_in_days": 9,
        "observations_used": 68,
        "orbit_uncertainty": "8",
        "minimum_orbit_intersection": ".00288182",
        "jupiter_tisserand_invariant": "3.918",
        "epoch_osculation": "2453556.5",
        "eccentricity": ".5057721669442996",
        "semi_major_axis": "1.782496772569506",
        "inclination": "8.456155280767675",
        "ascending_node_longitude": "276.2318142281154",
        "orbital_period": "869.2437068087055",
        "perihelion_distance": ".8809595173358065",
        "perihelion_argument": "305.8547358920485",
        "aphelion_distance": "2.684034027803205",
        "perihelion_time": "2453509.690787303998",
        "mean_anomaly": "19.38618184815825",
        "mean_motion": ".4141531278054167",
        "equinox": "J2000",
        "orbit_class": {
            "orbit_class_type": "APO",
            "orbit_class_description": "Near-Earth asteroid orbits which cross the Earth’s orbit similar to that of 1862 Apollo",
            "orbit_class_range": "a (semi-major axis) > 1.0 AU; q (perihelion) < 1.017 AU"
        }
    },
    "is_sentry_object": false
}